{"type": "FeatureCollection", "features": [ {"type": "Feature", "properties": {"norad_id": 29919, "name": "FENGYUN 1C DEB", "group": "fengyun-1c-debris", "lat": -1.2718540618939105, "lon": -41.28496599100975, "alt_km": 1047.809309922889, "timestamp": "2025-12-10T05:46:14.094466+00:00", "meta": {"OBJECT_NAME": "FENGYUN 1C DEB", "OBJECT_ID": "1999-025HR", "EPOCH": "2025-12-09T16:50:47.787072", "MEAN_MOTION": 13.85121402, "ECCENTRICITY": 0.0137506, "INCLINATION": 98.479, "RA_OF_ASC_NODE": 138.4177, "ARG_OF_PERICENTER": 352.1439, "MEAN_ANOMALY": 25.5997, "EPHEMERIS_TYPE": 0, "CLASSIFICATION_TYPE": "U", "NORAD_CAT_ID": 29919, "ELEMENT_SET_NO": 999, "REV_AT_EPOCH": 95493, "BSTAR": 0.00026823, "MEAN_MOTION_DOT": 2.89e-06, "MEAN_MOTION_DDOT": 0}, "tle": {"line1": "1 29919U 99025HR  25343.70194198  .00000289  00000+0  26823-3 0  9993", "line2": "2 29919  98.4790 138.4177 0137506 352.1439  25.5997 13.85121402954933"}}, "geometry": {"type": "Point", "coordinates": [-41.28496599100975, -1.2718540618939105]}}, {"type": "Feature", "properties": {"norad_id": 29920, "name": "FENGYUN 1C DEB", "group": "fengyun-1c-debris", "lat": -68.46582311265797, "lon": -3.039084493346256, "alt_km": 816.1480053212981, "timestamp": "2025-12-10T05:46:14.094475+00:00", "meta": {"OBJECT_NAME": "FENGYUN 1C DEB", "OBJECT_ID": "1999-025HS", "EPOCH": "2025-12-09T13:10:30.290880", "MEAN_MOTION": 14.03638912, "ECCENTRICITY": 0.0125458, "INCLINATION": 98.3912, "RA_OF_ASC_NODE": 198.2885, "ARG_OF_PERICENTER": 289.9123, "MEAN_ANOMALY": 68.8565, "EPHEMERIS_TYPE": 0, "CLASSIFICATION_TYPE": "U", "NORAD_CAT_ID": 29920, "ELEMENT_SET_NO": 999, "REV_AT_EPOCH": 96243, "BSTAR": 0.0019565, "MEAN_MOTION_DOT": 3.255e-05, "MEAN_MOTION_DDOT": 0}, "tle": {"line1": "1 29920U 99025HS  25343.54896170  .00003255  00000+0  19565-2 0  9996", "line2": "2 29920  98.3912 198.2885 0125458 289.9123  68.8565 14.03638912962435"}}, "geometry": {"type": "Point", "coordinates": [-3.039084493346256, -68.46582311265797]}}, {"type": "Feature", "properties": {"norad_id": 29921, "name": "FENGYUN 1C DEB", "group": "fengyun-1c-debris", "lat": 57.89491590143858, "lon": -23.842037313375172, "alt_km": 833.1483437566794, "timestamp": "2025-12-10T05:46:14.094485+00:00", "meta": {"OBJECT_NAME": "FENGYUN 1C DEB", "OBJECT_ID": "1999-025HT", "EPOCH": "2025-12-09T11:26:55.659840", "MEAN_MOTION": 14.0663748, "ECCENTRICITY": 0.00464524, "INCLINATION": 98.7867, "RA_OF_ASC_NODE": 349.6879, "ARG_OF_PERICENTER": 78.7429, "MEAN_ANOMALY": 76.7966, "EPHEMERIS_TYPE": 0, "CLASSIFICATION_TYPE": "U", "NORAD_CAT_ID": 29921, "ELEMENT_SET_NO": 999, "REV_AT_EPOCH": 96830, "BSTAR": 0.00072217613, "MEAN_MOTION_DOT": 1.167e-05, "MEAN_MOTION_DDOT": 0}, "tle": {"line1": "1 29921U 99025HT  25343.47703310  .00001167  00000+0  72218-3 0  9997", "line2": "2 29921  98.7867 349.6879 0046452  78.7429  76.7966 14.06637480968300"}}, "geometry": {"type": "Point", "coordinates": [-23.842037313375172, 57.89491590143858]}}, {"type": "Feature", "properties": {"norad_id": 29922, "name": "FENGYUN 1C DEB", "group": "fengyun-1c-debris", "lat": -78.28845015399695, "lon": 92.6209247154807, "alt_km": 913.208501389222, "timestamp": "2025-12-10T05:46:14.094495+00:00", "meta": {"OBJECT_NAME": "FENGYUN 1C DEB", "OBJECT_ID": "1999-025HU", "EPOCH": "2025-12-09T02:41:24.799776", "MEAN_MOTION": 13.98578642, "ECCENTRICITY": 0.00935062, "INCLINATION": 99.1363, "RA_OF_ASC_NODE": 40.5752, "ARG_OF_PERICENTER": 17.0575, "MEAN_ANOMALY": 343.3696, "EPHEMERIS_TYPE": 0, "CLASSIFICATION_TYPE": "U", "NORAD_CAT_ID": 29922, "ELEMENT_SET_NO": 999, "REV_AT_EPOCH": 96390, "BSTAR": 0.00021326065, "MEAN_MOTION_DOT": 2.73e-06, "MEAN_MOTION_DDOT": 0}, "tle": {"line1": "1 29922U 99025HU  25343.11209259  .00000273  00000+0  21326-3 0  9993", "line2": "2 29922  99.1363  40.5752 0093506  17.0575 343.3696 13.98578642963902"}}, "geometry": {"type": "Point", "coordinates": [92.6209247154807, -78.28845015399695]}}, {"type": "Feature", "properties": {"norad_id": 29923, "name": "FENGYUN 1C DEB", "group": "fengyun-1c-debris", "lat": -17.620471755508387, "lon": -4.613491490751022, "alt_km": 863.2544724774716, "timestamp": "2025-12-10T05:46:14.094505+00:00", "meta": {"OBJECT_NAME": "FENGYUN 1C DEB", "OBJECT_ID": "1999-025HV", "EPOCH": "2025-12-09T11:53:53.125728", "MEAN_MOTION": 14.13884606, "ECCENTRICITY": 0.00174914, "INCLINATION": 98.6883, "RA_OF_ASC_NODE": 351.8791, "ARG_OF_PERICENTER": 178.4393, "MEAN_ANOMALY": 335.4709, "EPHEMERIS_TYPE": 0, "CLASSIFICATION_TYPE": "U", "NORAD_CAT_ID": 29923, "ELEMENT_SET_NO": 999, "REV_AT_EPOCH": 97229, "BSTAR": 0.00076530038, "MEAN_MOTION_DOT": 1.41e-05, "MEAN_MOTION_DDOT": 0}, "tle": {"line1": "1 29923U 99025HV  25343.49575377  .00001410  00000+0  76530-3 0  9993", "line2": "2 29923  98.6883 351.8791 0017491 178.4393 335.4709 14.13884606972291"}}, "geometry": {"type": "Point", "coordinates": [-4.613491490751022, -17.620471755508387]}}, {"type": "Feature", "properties": {"norad_id": 29924, "name": "FENGYUN 1C DEB", "group": "fengyun-1c-debris", "lat": 1.523624989964955, "lon": -2.958813893337975, "alt_km": 867.9764562563896, "timestamp": "2025-12-10T05:46:14.094515+00:00", "meta": {"OBJECT_NAME": "FENGYUN 1C DEB", "OBJECT_ID": "1999-025HW", "EPOCH": "2025-12-09T18:40:54.160896", "MEAN_MOTION": 14.08889061, "ECCENTRICITY": 0.0025873, "INCLINATION": 98.7345, "RA_OF_ASC_NODE": 356.8278, "ARG_OF_PERICENTER": 266.3688, "MEAN_ANOMALY": 272.8521, "EPHEMERIS_TYPE": 0, "CLASSIFICATION_TYPE": "U", "NORAD_CAT_ID": 29924, "ELEMENT_SET_NO": 999, "REV_AT_EPOCH": 97166, "BSTAR": 0.00015485, "MEAN_MOTION_DOT": 2.26e-06, "MEAN_MOTION_DDOT": 0}, "tle": {"line1": "1 29924U 99025HW  25343.77840464  .00000226  00000+0  15485-3 0  9993", "line2": "2 29924  98.7345 356.8278 0025873 266.3688 272.8521 14.08889061971668"}}, "geometry": {"type": "Point", "coordinates": [-2.958813893337975, 1.523624989964955]}}, {"type": "Feature", "properties": {"norad_id": 29926, "name": "FENGYUN 1C DEB", "group": "fengyun-1c-debris", "lat": 11.616749162835596, "lon": -28.47051246859817, "alt_km": 700.5745089029324, "timestamp": "2025-12-10T05:46:14.094524+00:00", "meta": {"OBJECT_NAME": "FENGYUN 1C DEB", "OBJECT_ID": "1999-025HY", "EPOCH": "2025-12-09T10:21:33.201792", "MEAN_MOTION": 14.33377788, "ECCENTRICITY": 0.02484464, "INCLINATION": 98.2836, "RA_OF_ASC_NODE": 332.4708, "ARG_OF_PERICENTER": 310.151, "MEAN_ANOMALY": 207.9994, "EPHEMERIS_TYPE": 0, "CLASSIFICATION_TYPE": "U", "NORAD_CAT_ID": 29926, "ELEMENT_SET_NO": 999, "REV_AT_EPOCH": 98533, "BSTAR": 0.00071639894, "MEAN_MOTION_DOT": 2.738e-05, "MEAN_MOTION_DDOT": 0}, "tle": {"line1": "1 29926U 99025HY  25343.43163428  .00002738  00000+0  71640-3 0  9991", "line2": "2 29926  98.2836 332.4708 0248446 310.1510 207.9994 14.33377788985331"}}, "geometry": {"type": "Point", "coordinates": [-28.47051246859817, 11.616749162835596]}}, {"type": "Feature", "properties": {"norad_id": 29927, "name": "FENGYUN 1C DEB", "group": "fengyun-1c-debris", "lat": 50.90475068339203, "lon": -160.75385163367852, "alt_km": 642.2672355635186, "timestamp": "2025-12-10T05:46:14.094534+00:00", "meta": {"OBJECT_NAME": "FENGYUN 1C DEB", "OBJECT_ID": "1999-025HZ", "EPOCH": "2025-12-09T20:13:35.065344", "MEAN_MOTION": 14.74379243, "ECCENTRICITY": 0.0017666, "INCLINATION": 99.0844, "RA_OF_ASC_NODE": 7.4441, "ARG_OF_PERICENTER": 219.1924, "MEAN_ANOMALY": 319.5889, "EPHEMERIS_TYPE": 0, "CLASSIFICATION_TYPE": "U", "NORAD_CAT_ID": 29927, "ELEMENT_SET_NO": 999, "REV_AT_EPOCH": 98604, "BSTAR": 0.0049203, "MEAN_MOTION_DOT": 0.00032797, "MEAN_MOTION_DDOT": 0}, "tle": {"line1": "1 29927U 99025HZ  25343.84276696  .00032797  00000+0  49203-2 0  9996", "line2": "2 29927  99.0844   7.4441 0017666 219.1924 319.5889 14.74379243986043"}}, "geometry": {"type": "Point", "coordinates": [-160.75385163367852, 50.90475068339203]}}, {"type": "Feature", "properties": {"norad_id": 29928, "name": "FENGYUN 1C DEB", "group": "fengyun-1c-debris", "lat": -63.10055631031576, "lon": 27.894759071066083, "alt_km": 1046.9434014012295, "timestamp": "2025-12-10T05:46:14.094544+00:00", "meta": {"OBJECT_NAME": "FENGYUN 1C DEB", "OBJECT_ID": "1999-025JA", "EPOCH": "2025-12-09T00:59:45.134304", "MEAN_MOTION": 13.88075272, "ECCENTRICITY": 0.01434883, "INCLINATION": 99.5847, "RA_OF_ASC_NODE": 7.2093, "ARG_OF_PERICENTER": 112.887, "MEAN_ANOMALY": 314.543, "EPHEMERIS_TYPE": 0, "CLASSIFICATION_TYPE": "U", "NORAD_CAT_ID": 29928, "ELEMENT_SET_NO": 999, "REV_AT_EPOCH": 95440, "BSTAR": 0.00083265322, "MEAN_MOTION_DOT": 1.032e-05, "MEAN_MOTION_DDOT": 0}, "tle": {"line1": "1 29928U 99025JA  25343.04149461  .00001032  00000+0  83265-3 0  9993", "line2": "2 29928  99.5847   7.2093 0143488 112.8870 314.5430 13.88075272954405"}}, "geometry": {"type": "Point", "coordinates": [27.894759071066083, -63.10055631031576]}}, {"type": "Feature", "properties": {"norad_id": 29929, "name": "FENGYUN 1C DEB", "group": "fengyun-1c-debris", "lat": 38.22731194789218, "lon": -103.24490359821428, "alt_km": 963.3130905943153, "timestamp": "2025-12-10T05:46:14.094570+00:00", "meta": {"OBJECT_NAME": "FENGYUN 1C DEB", "OBJECT_ID": "1999-025JB", "EPOCH": "2025-12-09T17:43:44.364288", "MEAN_MOTION": 14.01347393, "ECCENTRICITY": 0.0131033, "INCLINATION": 98.6241, "RA_OF_ASC_NODE": 263.1465, "ARG_OF_PERICENTER": 184.7061, "MEAN_ANOMALY": 205.2391, "EPHEMERIS_TYPE": 0, "CLASSIFICATION_TYPE": "U", "NORAD_CAT_ID": 29929, "ELEMENT_SET_NO": 999, "REV_AT_EPOCH": 95914, "BSTAR": 0.0015231, "MEAN_MOTION_DOT": 2.434e-05, "MEAN_MOTION_DDOT": 0}, "tle": {"line1": "1 29929U 99025JB  25343.73870792  .00002434  00000+0  15231-2 0  9992", "line2": "2 29929  98.6241 263.1465 0131033 184.7061 205.2391 14.01347393959143"}}, "geometry": {"type": "Point", "coordinates": [-103.24490359821428, 38.22731194789218]}}]}